STARLINK-36471          
1 67324U 26002V   26068.11900643  .00028792  00000+0  10515-2 0  9999
2 67324  43.0021 328.3142 0001393 277.6642  82.4051 15.27585850 10992
KUIPER-00266            
1 67789U 26030AB  26067.91293632  .00029701  00000+0  98220-3 0  9996
2 67789  51.8807 223.5904 0022313  72.5291 287.8129 15.30874235  4964
